[{"OBJECT_NAME":"STARLINK-36618","OBJECT_ID":"2026-033AC","EPOCH":"2026-03-02T19:37:15.976128","MEAN_MOTION":15.99086231,"ECCENTRICITY":0.0003214,"INCLINATION":42.9866,"RA_OF_ASC_NODE":311.882,"ARG_OF_PERICENTER":245.1255,"MEAN_ANOMALY":114.9288,"EPHEMERIS_TYPE":0,"CLASSIFICATION_TYPE":"U","NORAD_CAT_ID":67847,"ELEMENT_SET_NO":999,"REV_AT_EPOCH":355,"BSTAR":0.00019489,"MEAN_MOTION_DOT":0.00096149,"MEAN_MOTION_DDOT":1.2226e-5},{"OBJECT_NAME":"STARLINK-36818","OBJECT_ID":"2026-035A","EPOCH":"2026-03-02T20:00:01.999008","MEAN_MOTION":16.01554262,"ECCENTRICITY":0.0001157,"INCLINATION":97.2793,"RA_OF_ASC_NODE":353.6169,"ARG_OF_PERICENTER":94.6972,"MEAN_ANOMALY":346.9148,"EPHEMERIS_TYPE":0,"CLASSIFICATION_TYPE":"U","NORAD_CAT_ID":67879,"ELEMENT_SET_NO":999,"REV_AT_EPOCH":265,"BSTAR":-0.0015326,"MEAN_MOTION_DOT":-0.00847045,"MEAN_MOTION_DDOT":0.0002452},{"OBJECT_NAME":"STARLINK-36821","OBJECT_ID":"2026-035B","EPOCH":"2026-03-02T20:00:01.999008","MEAN_MOTION":16.01742801,"ECCENTRICITY":0.0001043,"INCLINATION":97.279,"RA_OF_ASC_NODE":353.6195,"ARG_OF_PERICENTER":84.2357,"MEAN_ANOMALY":2.6864,"EPHEMERIS_TYPE":0,"CLASSIFICATION_TYPE":"U","NORAD_CAT_ID":67880,"ELEMENT_SET_NO":999,"REV_AT_EPOCH":265,"BSTAR":-0.0015296,"MEAN_MOTION_DOT":-0.00854619,"MEAN_MOTION_DDOT":0.00024983},{"OBJECT_NAME":"STARLINK-36808","OBJECT_ID":"2026-035C","EPOCH":"2026-03-02T20:00:01.999008","MEAN_MOTION":16.01627805,"ECCENTRICITY":0.0001087,"INCLINATION":97.2791,"RA_OF_ASC_NODE":353.618,"ARG_OF_PERICENTER":88.9274,"MEAN_ANOMALY":354.6646,"EPHEMERIS_TYPE":0,"CLASSIFICATION_TYPE":"U","NORAD_CAT_ID":67881,"ELEMENT_SET_NO":999,"REV_AT_EPOCH":265,"BSTAR":-0.0015304,"MEAN_MOTION_DOT":-0.00849423,"MEAN_MOTION_DDOT":0.00024669},{"OBJECT_NAME":"STARLINK-36817","OBJECT_ID":"2026-035D","EPOCH":"2026-03-02T20:00:01.999008","MEAN_MOTION":16.01968851,"ECCENTRICITY":0.0001154,"INCLINATION":97.2784,"RA_OF_ASC_NODE":353.6221,"ARG_OF_PERICENTER":83.4272,"MEAN_ANOMALY":9.9926,"EPHEMERIS_TYPE":0,"CLASSIFICATION_TYPE":"U","NORAD_CAT_ID":67882,"ELEMENT_SET_NO":999,"REV_AT_EPOCH":265,"BSTAR":-0.0015214,"MEAN_MOTION_DOT":-0.00861187,"MEAN_MOTION_DDOT":0.00025408},{"OBJECT_NAME":"STARLINK-36856","OBJECT_ID":"2026-035E","EPOCH":"2026-03-02T20:00:01.999008","MEAN_MOTION":16.01862513,"ECCENTRICITY":0.0001105,"INCLINATION":97.2788,"RA_OF_ASC_NODE":353.6208,"ARG_OF_PERICENTER":90.4084,"MEAN_ANOMALY":359.9947,"EPHEMERIS_TYPE":0,"CLASSIFICATION_TYPE":"U","NORAD_CAT_ID":67883,"ELEMENT_SET_NO":999,"REV_AT_EPOCH":265,"BSTAR":-0.0015242,"MEAN_MOTION_DOT":-0.00857501,"MEAN_MOTION_DDOT":0.00025175},{"OBJECT_NAME":"STARLINK-36842","OBJECT_ID":"2026-035F","EPOCH":"2026-03-02T20:00:01.999008","MEAN_MOTION":16.02060063,"ECCENTRICITY":0.0001038,"INCLINATION":97.2785,"RA_OF_ASC_NODE":353.6233,"ARG_OF_PERICENTER":76.0688,"MEAN_ANOMALY":20.1496,"EPHEMERIS_TYPE":0,"CLASSIFICATION_TYPE":"U","NORAD_CAT_ID":67884,"ELEMENT_SET_NO":999,"REV_AT_EPOCH":265,"BSTAR":-0.0014814,"MEAN_MOTION_DOT":-0.00843126,"MEAN_MOTION_DDOT":0.00024453},{"OBJECT_NAME":"STARLINK-36826","OBJECT_ID":"2026-035G","EPOCH":"2026-03-02T20:00:01.999008","MEAN_MOTION":16.02145361,"ECCENTRICITY":0.000108,"INCLINATION":97.2783,"RA_OF_ASC_NODE":353.6242,"ARG_OF_PERICENTER":77.9352,"MEAN_ANOMALY":20.4745,"EPHEMERIS_TYPE":0,"CLASSIFICATION_TYPE":"U","NORAD_CAT_ID":67885,"ELEMENT_SET_NO":999,"REV_AT_EPOCH":265,"BSTAR":-0.0014826,"MEAN_MOTION_DOT":-0.00847957,"MEAN_MOTION_DDOT":0.00024739},{"OBJECT_NAME":"STARLINK-36390","OBJECT_ID":"2026-035H","EPOCH":"2026-03-02T20:00:01.999008","MEAN_MOTION":16.02270765,"ECCENTRICITY":0.0001079,"INCLINATION":97.2781,"RA_OF_ASC_NODE":353.6255,"ARG_OF_PERICENTER":88.4743,"MEAN_ANOMALY":13.3764,"EPHEMERIS_TYPE":0,"CLASSIFICATION_TYPE":"U","NORAD_CAT_ID":67886,"ELEMENT_SET_NO":999,"REV_AT_EPOCH":270,"BSTAR":-0.0014962,"MEAN_MOTION_DOT":-0.0086189,"MEAN_MOTION_DDOT":0.00025536},{"OBJECT_NAME":"STARLINK-36368","OBJECT_ID":"2026-035J","EPOCH":"2026-03-02T20:00:01.999008","MEAN_MOTION":16.02385297,"ECCENTRICITY":0.00011,"INCLINATION":97.278,"RA_OF_ASC_NODE":353.627,"ARG_OF_PERICENTER":89.409,"MEAN_ANOMALY":15.698,"EPHEMERIS_TYPE":0,"CLASSIFICATION_TYPE":"U","NORAD_CAT_ID":67887,"ELEMENT_SET_NO":999,"REV_AT_EPOCH":265,"BSTAR":-0.0014861,"MEAN_MOTION_DOT":-0.00861811,"MEAN_MOTION_DDOT":0.00025566},{"OBJECT_NAME":"STARLINK-36801","OBJECT_ID":"2026-035K","EPOCH":"2026-03-02T20:00:01.999008","MEAN_MOTION":16.02504447,"ECCENTRICITY":0.0001067,"INCLINATION":97.2777,"RA_OF_ASC_NODE":353.6283,"ARG_OF_PERICENTER":83.8562,"MEAN_ANOMALY":24.3719,"EPHEMERIS_TYPE":0,"CLASSIFICATION_TYPE":"U","NORAD_CAT_ID":67888,"ELEMENT_SET_NO":999,"REV_AT_EPOCH":265,"BSTAR":-0.0014518,"MEAN_MOTION_DOT":-0.00847875,"MEAN_MOTION_DDOT":0.00024839},{"OBJECT_NAME":"STARLINK-36372","OBJECT_ID":"2026-035L","EPOCH":"2026-03-02T20:00:01.999008","MEAN_MOTION":16.02715607,"ECCENTRICITY":0.00011,"INCLINATION":97.2773,"RA_OF_ASC_NODE":353.6307,"ARG_OF_PERICENTER":91.339,"MEAN_ANOMALY":22.8621,"EPHEMERIS_TYPE":0,"CLASSIFICATION_TYPE":"U","NORAD_CAT_ID":67889,"ELEMENT_SET_NO":999,"REV_AT_EPOCH":265,"BSTAR":-0.0014479,"MEAN_MOTION_DOT":-0.0085605,"MEAN_MOTION_DDOT":0.00025348},{"OBJECT_NAME":"STARLINK-36363","OBJECT_ID":"2026-035M","EPOCH":"2026-03-02T20:00:01.999008","MEAN_MOTION":16.02626695,"ECCENTRICITY":0.0001133,"INCLINATION":97.2778,"RA_OF_ASC_NODE":353.6299,"ARG_OF_PERICENTER":93.6898,"MEAN_ANOMALY":18.0891,"EPHEMERIS_TYPE":0,"CLASSIFICATION_TYPE":"U","NORAD_CAT_ID":67890,"ELEMENT_SET_NO":999,"REV_AT_EPOCH":265,"BSTAR":-0.0014662,"MEAN_MOTION_DOT":-0.00862324,"MEAN_MOTION_DDOT":0.00025667},{"OBJECT_NAME":"STARLINK-36816","OBJECT_ID":"2026-035N","EPOCH":"2026-03-02T20:00:01.999008","MEAN_MOTION":16.04405,"ECCENTRICITY":0.0001066,"INCLINATION":97.2749,"RA_OF_ASC_NODE":353.6488,"ARG_OF_PERICENTER":81.0832,"MEAN_ANOMALY":78.5037,"EPHEMERIS_TYPE":0,"CLASSIFICATION_TYPE":"U","NORAD_CAT_ID":67891,"ELEMENT_SET_NO":999,"REV_AT_EPOCH":254,"BSTAR":-0.0015901,"MEAN_MOTION_DOT":-0.01037451,"MEAN_MOTION_DDOT":0.00036925},{"OBJECT_NAME":"STARLINK-36813","OBJECT_ID":"2026-035P","EPOCH":"2026-03-02T20:00:01.999008","MEAN_MOTION":16.03685411,"ECCENTRICITY":0.0001091,"INCLINATION":97.2754,"RA_OF_ASC_NODE":353.6403,"ARG_OF_PERICENTER":90.4024,"MEAN_ANOMALY":48.8999,"EPHEMERIS_TYPE":0,"CLASSIFICATION_TYPE":"U","NORAD_CAT_ID":67892,"ELEMENT_SET_NO":999,"REV_AT_EPOCH":265,"BSTAR":-0.0015007,"MEAN_MOTION_DOT":-0.00938801,"MEAN_MOTION_DDOT":0.00030427},{"OBJECT_NAME":"STARLINK-36803","OBJECT_ID":"2026-035Q","EPOCH":"2026-03-02T20:00:01.999008","MEAN_MOTION":16.02850114,"ECCENTRICITY":0.0001061,"INCLINATION":97.2772,"RA_OF_ASC_NODE":353.6323,"ARG_OF_PERICENTER":95.6749,"MEAN_ANOMALY":22.3272,"EPHEMERIS_TYPE":0,"CLASSIFICATION_TYPE":"U","NORAD_CAT_ID":67893,"ELEMENT_SET_NO":999,"REV_AT_EPOCH":265,"BSTAR":-0.0014281,"MEAN_MOTION_DOT":-0.00851074,"MEAN_MOTION_DDOT":0.00025115}]
